ONEWEB-0446             
1 51640U 22012U   26025.53488117  .00000082  00000+0  19816-3 0  9992
2 51640  87.8766  64.7197 0001810 100.1645 259.9686 13.10377927190646
ONEWEB-0448             
1 51641U 22012V   26025.53986800  .00000262  00000+0  71279-3 0  9996
2 51641  87.8761  64.7177 0001798  95.5949 264.5383 13.10376520190610
ONEWEB-0449             
1 51642U 22012W   26025.54485677  .00000522  00000+0  14575-2 0  9998
2 51642  87.8767  64.6911 0002224  87.9822 272.1560 13.10375702190626
ONEWEB-0451             
1 51643U 22012X   26025.52478016  .00000035  00000+0  57285-4 0  9992
2 51643  87.9093  34.1807 0001915  88.2427 271.8924 13.17650591194877
ONEWEB-0452             
1 51644U 22012Y   26025.52310368  .00000009  00000+0 -91968-5 0  9997
2 51644  87.9085  34.2316 0001977  81.8670 278.2686 13.17649245194883
ONEWEB-0456             
1 51646U 22012AA  26025.55481288  .00000669  00000+0  18808-2 0  9992
2 51646  87.8774  64.6635 0001635  95.6656 264.4658 13.10373470190663
ONEWEB-0457             
1 51647U 22012AB  26025.83699307 -.00000181  00000+0 -55543-3 0  9996
2 51647  87.8764  64.6473 0002222 102.4884 257.6491 13.10375604190701
ONEWEB-0458             
1 51648U 22012AC  26025.55315983  .00000670  00000+0  18829-2 0  9997
2 51648  87.8767  64.6811 0001895  91.9469 268.1875 13.10373732190621
